LANDSAT 9               
1 49260U 21088A   24061.15415838  .00000510  00000+0  12325-3 0  9999
2 49260  98.1984 132.5532 0001403  99.5315 260.6042 14.57102950128952
